ONEWEB-0710             
1 55173U 23004AK  26014.50897348  .00000070  00000+0  14734-3 0  9995
2 55173  87.9083  36.4152 0001924  96.6914 263.4437 13.17650694147340
ONEWEB-0711             
1 55174U 23004AL  26014.51381103 -.00000774  00000+0 -22190-2 0  9991
2 55174  87.8833  51.6548 0002503 104.7667 255.3738 13.11417892145696
ONEWEB-0713             
1 55175U 23004AM  26014.53247617  .00000204  00000+0  53989-3 0  9992
2 55175  87.8831  51.6519 0002245 102.6070 257.5309 13.11419698145684
ONEWEB-0715             
1 55176U 23004AN  26014.52738825 -.00000021  00000+0 -94102-4 0  9990
2 55176  87.8830  51.6537 0001570 120.4316 239.6967 13.11419158145722
ONEWEB-0716             
1 55177U 23004AP  26014.50222056  .00000114  00000+0  26121-3 0  9999
2 55177  87.9085  36.4165 0001739  86.1797 273.9534 13.17648543147341
ONEWEB-0717             
1 55178U 23004AQ  26014.48534871  .00000096  00000+0  21364-3 0  9991
2 55178  87.9094  36.3940 0002358 105.5880 254.5512 13.17648226147393
ONEWEB-0719             
1 55179U 23004AR  26014.49547707  .00000081  00000+0  17464-3 0  9995
2 55179  87.9094  36.3741 0001895  87.5342 272.6007 13.17647934147340
ONEWEB-0530             
1 55796U 23029A   26014.30417479  .00000061  00000+0  11773-3 0  9994
2 55796  87.9222 305.1805 0002200  82.4189 277.7194 13.20771811140836
ONEWEB-0534             
1 55797U 23029B   26014.21580072  .00000034  00000+0  52400-4 0  9998
2 55797  87.9222 305.1977 0001741  72.7050 287.4274 13.20772359140829
ONEWEB-0556             
1 55798U 23029C   26014.29785517  .00000068  00000+0  13419-3 0  9991
2 55798  87.9225 305.1825 0002444  58.9891 301.1482 13.20770750140834
ONEWEB-0562             
1 55799U 23029D   26014.20948103  .00000096  00000+0  20390-3 0  9992
2 55799  87.9223 305.1812 0002630  77.5657 282.5771 13.20771453140826
ONEWEB-0563             
1 55800U 23029E   26014.35468609  .00000139  00000+0  30985-3 0  9998
2 55800  87.9224 305.1814 0001709  67.5713 292.5601 13.20772288140831
ONEWEB-0564             
1 55801U 23029F   26014.34836331  .00000084  00000+0  17402-3 0  9997
2 55801  87.9221 305.1565 0002093  79.4180 280.7189 13.20773193140846
ONEWEB-0638             
1 55802U 23029G   26014.33067712 -.00000169  00000+0 -48946-3 0  9999
2 55802  87.9018 320.4259 0002172  71.8665 288.2702 13.14502784139181
ONEWEB-0639             
1 55803U 23029H   26014.42709055  .00000032  00000+0  48074-4 0  9993
2 55803  87.9228 335.5760 0001089  45.5776 314.5445 13.19726917138622
ONEWEB-0640             
1 55804U 23029J   26014.34019385 -.00000127  00000+0 -37681-3 0  9993
2 55804  87.9019 320.4130 0002141  58.5359 301.5980 13.14502769139203
ONEWEB-0641             
1 55805U 23029K   26014.42235835  .00000031  00000+0  44141-4 0  9995
2 55805  87.9238 335.5603 0001604  77.8866 282.2446 13.19724949138638
