[{"OBJECT_NAME":"ONEWEB-0710","OBJECT_ID":"2023-004AK","EPOCH":"2026-01-14T12:12:55.308672","MEAN_MOTION":13.17650694,"ECCENTRICITY":0.00019242,"INCLINATION":87.9083,"RA_OF_ASC_NODE":36.4152,"ARG_OF_PERICENTER":96.6914,"MEAN_ANOMALY":263.4437,"EPHEMERIS_TYPE":0,"CLASSIFICATION_TYPE":"U","NORAD_CAT_ID":55173,"ELEMENT_SET_NO":999,"REV_AT_EPOCH":14734,"BSTAR":0.00014734268,"MEAN_MOTION_DOT":7.0e-7,"MEAN_MOTION_DDOT":0},{"OBJECT_NAME":"ONEWEB-0711","OBJECT_ID":"2023-004AL","EPOCH":"2026-01-14T12:19:53.272992","MEAN_MOTION":13.11417892,"ECCENTRICITY":0.0002503,"INCLINATION":87.8833,"RA_OF_ASC_NODE":51.6548,"ARG_OF_PERICENTER":104.7667,"MEAN_ANOMALY":255.3738,"EPHEMERIS_TYPE":0,"CLASSIFICATION_TYPE":"U","NORAD_CAT_ID":55174,"ELEMENT_SET_NO":999,"REV_AT_EPOCH":14569,"BSTAR":-0.0022190165,"MEAN_MOTION_DOT":-7.74e-6,"MEAN_MOTION_DDOT":0},{"OBJECT_NAME":"ONEWEB-0713","OBJECT_ID":"2023-004AM","EPOCH":"2026-01-14T12:46:45.941088","MEAN_MOTION":13.11419698,"ECCENTRICITY":0.00022457,"INCLINATION":87.8831,"RA_OF_ASC_NODE":51.6519,"ARG_OF_PERICENTER":102.607,"MEAN_ANOMALY":257.5309,"EPHEMERIS_TYPE":0,"CLASSIFICATION_TYPE":"U","NORAD_CAT_ID":55175,"ELEMENT_SET_NO":999,"REV_AT_EPOCH":14568,"BSTAR":0.00053988994,"MEAN_MOTION_DOT":2.04e-6,"MEAN_MOTION_DDOT":0},{"OBJECT_NAME":"ONEWEB-0715","OBJECT_ID":"2023-004AN","EPOCH":"2026-01-14T12:39:26.344800","MEAN_MOTION":13.11419158,"ECCENTRICITY":0.00015705,"INCLINATION":87.883,"RA_OF_ASC_NODE":51.6537,"ARG_OF_PERICENTER":120.4316,"MEAN_ANOMALY":239.6967,"EPHEMERIS_TYPE":0,"CLASSIFICATION_TYPE":"U","NORAD_CAT_ID":55176,"ELEMENT_SET_NO":999,"REV_AT_EPOCH":14572,"BSTAR":-9.4101932e-5,"MEAN_MOTION_DOT":-2.1e-7,"MEAN_MOTION_DDOT":0},{"OBJECT_NAME":"ONEWEB-0716","OBJECT_ID":"2023-004AP","EPOCH":"2026-01-14T12:03:11.856384","MEAN_MOTION":13.17648543,"ECCENTRICITY":0.00017396,"INCLINATION":87.9085,"RA_OF_ASC_NODE":36.4165,"ARG_OF_PERICENTER":86.1797,"MEAN_ANOMALY":273.9534,"EPHEMERIS_TYPE":0,"CLASSIFICATION_TYPE":"U","NORAD_CAT_ID":55177,"ELEMENT_SET_NO":999,"REV_AT_EPOCH":14734,"BSTAR":0.00026121045,"MEAN_MOTION_DOT":1.14e-6,"MEAN_MOTION_DDOT":0},{"OBJECT_NAME":"ONEWEB-0717","OBJECT_ID":"2023-004AQ","EPOCH":"2026-01-14T11:38:54.128544","MEAN_MOTION":13.17648226,"ECCENTRICITY":0.0002358,"INCLINATION":87.9094,"RA_OF_ASC_NODE":36.394,"ARG_OF_PERICENTER":105.588,"MEAN_ANOMALY":254.5512,"EPHEMERIS_TYPE":0,"CLASSIFICATION_TYPE":"U","NORAD_CAT_ID":55178,"ELEMENT_SET_NO":999,"REV_AT_EPOCH":14739,"BSTAR":0.00021363825,"MEAN_MOTION_DOT":9.6e-7,"MEAN_MOTION_DDOT":0},{"OBJECT_NAME":"ONEWEB-0719","OBJECT_ID":"2023-004AR","EPOCH":"2026-01-14T11:53:29.218848","MEAN_MOTION":13.17647934,"ECCENTRICITY":0.00018951,"INCLINATION":87.9094,"RA_OF_ASC_NODE":36.3741,"ARG_OF_PERICENTER":87.5342,"MEAN_ANOMALY":272.6007,"EPHEMERIS_TYPE":0,"CLASSIFICATION_TYPE":"U","NORAD_CAT_ID":55179,"ELEMENT_SET_NO":999,"REV_AT_EPOCH":14734,"BSTAR":0.000174638,"MEAN_MOTION_DOT":8.1e-7,"MEAN_MOTION_DDOT":0},{"OBJECT_NAME":"ONEWEB-0530","OBJECT_ID":"2023-029A","EPOCH":"2026-01-14T07:18:00.701856","MEAN_MOTION":13.20771811,"ECCENTRICITY":0.00022008,"INCLINATION":87.9222,"RA_OF_ASC_NODE":305.1805,"ARG_OF_PERICENTER":82.4189,"MEAN_ANOMALY":277.7194,"EPHEMERIS_TYPE":0,"CLASSIFICATION_TYPE":"U","NORAD_CAT_ID":55796,"ELEMENT_SET_NO":999,"REV_AT_EPOCH":14083,"BSTAR":0.0001177341,"MEAN_MOTION_DOT":6.1e-7,"MEAN_MOTION_DDOT":0},{"OBJECT_NAME":"ONEWEB-0534","OBJECT_ID":"2023-029B","EPOCH":"2026-01-14T05:10:45.182208","MEAN_MOTION":13.20772359,"ECCENTRICITY":0.00017413,"INCLINATION":87.9222,"RA_OF_ASC_NODE":305.1977,"ARG_OF_PERICENTER":72.705,"MEAN_ANOMALY":287.4274,"EPHEMERIS_TYPE":0,"CLASSIFICATION_TYPE":"U","NORAD_CAT_ID":55797,"ELEMENT_SET_NO":999,"REV_AT_EPOCH":14082,"BSTAR":5.2400083e-5,"MEAN_MOTION_DOT":3.4e-7,"MEAN_MOTION_DDOT":0},{"OBJECT_NAME":"ONEWEB-0556","OBJECT_ID":"2023-029C","EPOCH":"2026-01-14T07:08:54.686688","MEAN_MOTION":13.2077075,"ECCENTRICITY":0.00024449,"INCLINATION":87.9225,"RA_OF_ASC_NODE":305.1825,"ARG_OF_PERICENTER":58.9891,"MEAN_ANOMALY":301.1482,"EPHEMERIS_TYPE":0,"CLASSIFICATION_TYPE":"U","NORAD_CAT_ID":55798,"ELEMENT_SET_NO":999,"REV_AT_EPOCH":14083,"BSTAR":0.00013419289,"MEAN_MOTION_DOT":6.8e-7,"MEAN_MOTION_DDOT":0},{"OBJECT_NAME":"ONEWEB-0562","OBJECT_ID":"2023-029D","EPOCH":"2026-01-14T05:01:39.160992","MEAN_MOTION":13.20771453,"ECCENTRICITY":0.00026305,"INCLINATION":87.9223,"RA_OF_ASC_NODE":305.1812,"ARG_OF_PERICENTER":77.5657,"MEAN_ANOMALY":282.5771,"EPHEMERIS_TYPE":0,"CLASSIFICATION_TYPE":"U","NORAD_CAT_ID":55799,"ELEMENT_SET_NO":999,"REV_AT_EPOCH":14082,"BSTAR":0.00020389632,"MEAN_MOTION_DOT":9.6e-7,"MEAN_MOTION_DDOT":0},{"OBJECT_NAME":"ONEWEB-0563","OBJECT_ID":"2023-029E","EPOCH":"2026-01-14T08:30:44.878176","MEAN_MOTION":13.20772288,"ECCENTRICITY":0.00017099,"INCLINATION":87.9224,"RA_OF_ASC_NODE":305.1814,"ARG_OF_PERICENTER":67.5713,"MEAN_ANOMALY":292.5601,"EPHEMERIS_TYPE":0,"CLASSIFICATION_TYPE":"U","NORAD_CAT_ID":55800,"ELEMENT_SET_NO":999,"REV_AT_EPOCH":14083,"BSTAR":0.00030985089,"MEAN_MOTION_DOT":1.39e-6,"MEAN_MOTION_DDOT":0},{"OBJECT_NAME":"ONEWEB-0564","OBJECT_ID":"2023-029F","EPOCH":"2026-01-14T08:21:38.589984","MEAN_MOTION":13.20773193,"ECCENTRICITY":0.00020932,"INCLINATION":87.9221,"RA_OF_ASC_NODE":305.1565,"ARG_OF_PERICENTER":79.418,"MEAN_ANOMALY":280.7189,"EPHEMERIS_TYPE":0,"CLASSIFICATION_TYPE":"U","NORAD_CAT_ID":55801,"ELEMENT_SET_NO":999,"REV_AT_EPOCH":14084,"BSTAR":0.00017401635,"MEAN_MOTION_DOT":8.4e-7,"MEAN_MOTION_DDOT":0},{"OBJECT_NAME":"ONEWEB-0638","OBJECT_ID":"2023-029G","EPOCH":"2026-01-14T07:56:10.503168","MEAN_MOTION":13.14502784,"ECCENTRICITY":0.00021728,"INCLINATION":87.9018,"RA_OF_ASC_NODE":320.4259,"ARG_OF_PERICENTER":71.8665,"MEAN_ANOMALY":288.2702,"EPHEMERIS_TYPE":0,"CLASSIFICATION_TYPE":"U","NORAD_CAT_ID":55802,"ELEMENT_SET_NO":999,"REV_AT_EPOCH":13918,"BSTAR":-0.00048945903,"MEAN_MOTION_DOT":-1.69e-6,"MEAN_MOTION_DDOT":0},{"OBJECT_NAME":"ONEWEB-0639","OBJECT_ID":"2023-029H","EPOCH":"2026-01-14T10:15:00.623520","MEAN_MOTION":13.19726917,"ECCENTRICITY":0.00010892,"INCLINATION":87.9228,"RA_OF_ASC_NODE":335.576,"ARG_OF_PERICENTER":45.5776,"MEAN_ANOMALY":314.5445,"EPHEMERIS_TYPE":0,"CLASSIFICATION_TYPE":"U","NORAD_CAT_ID":55803,"ELEMENT_SET_NO":999,"REV_AT_EPOCH":13862,"BSTAR":4.8073636e-5,"MEAN_MOTION_DOT":3.2e-7,"MEAN_MOTION_DDOT":0},{"OBJECT_NAME":"ONEWEB-0640","OBJECT_ID":"2023-029J","EPOCH":"2026-01-14T08:09:52.748640","MEAN_MOTION":13.14502769,"ECCENTRICITY":0.00021413,"INCLINATION":87.9019,"RA_OF_ASC_NODE":320.413,"ARG_OF_PERICENTER":58.5359,"MEAN_ANOMALY":301.598,"EPHEMERIS_TYPE":0,"CLASSIFICATION_TYPE":"U","NORAD_CAT_ID":55804,"ELEMENT_SET_NO":999,"REV_AT_EPOCH":13920,"BSTAR":-0.0003768142,"MEAN_MOTION_DOT":-1.27e-6,"MEAN_MOTION_DDOT":0},{"OBJECT_NAME":"ONEWEB-0641","OBJECT_ID":"2023-029K","EPOCH":"2026-01-14T10:08:11.761440","MEAN_MOTION":13.19724949,"ECCENTRICITY":0.00016042,"INCLINATION":87.9238,"RA_OF_ASC_NODE":335.5603,"ARG_OF_PERICENTER":77.8866,"MEAN_ANOMALY":282.2446,"EPHEMERIS_TYPE":0,"CLASSIFICATION_TYPE":"U","NORAD_CAT_ID":55805,"ELEMENT_SET_NO":999,"REV_AT_EPOCH":13863,"BSTAR":4.4141483e-5,"MEAN_MOTION_DOT":3.1e-7,"MEAN_MOTION_DDOT":0}]
